{"type": "FeatureCollection", "features": [ {"type": "Feature", "properties": {"norad_id": 30481, "name": "FENGYUN 1C DEB", "group": "fengyun-1c-debris", "lat": -34.90361684981707, "lon": -167.28109337735486, "alt_km": 608.2454848404968, "timestamp": "2025-12-27T16:33:30.499168+00:00", "meta": {"OBJECT_NAME": "FENGYUN 1C DEB", "OBJECT_ID": "1999-025AGT", "EPOCH": "2025-12-27T00:48:10.118880", "MEAN_MOTION": 14.39094274, "ECCENTRICITY": 0.02233206, "INCLINATION": 98.3364, "RA_OF_ASC_NODE": 17.952, "ARG_OF_PERICENTER": 216.8286, "MEAN_ANOMALY": 199.2714, "EPHEMERIS_TYPE": 0, "CLASSIFICATION_TYPE": "U", "NORAD_CAT_ID": 30481, "ELEMENT_SET_NO": 999, "REV_AT_EPOCH": 98689, "BSTAR": 0.00051565462, "MEAN_MOTION_DOT": 2.083e-05, "MEAN_MOTION_DDOT": 0}, "tle": {"line1": "1 30481U 99025AGT 25361.03345045  .00002083  00000+0  51565-3 0  9999", "line2": "2 30481  98.3364  17.9520 0223320 216.8286 199.2714 14.39094274986896"}}, "geometry": {"type": "Point", "coordinates": [-167.28109337735486, -34.90361684981707]}}, {"type": "Feature", "properties": {"norad_id": 30489, "name": "FENGYUN 1C DEB", "group": "fengyun-1c-debris", "lat": -77.83690071886701, "lon": 152.12436917098043, "alt_km": 768.6859745513293, "timestamp": "2025-12-27T16:33:30.499178+00:00", "meta": {"OBJECT_NAME": "FENGYUN 1C DEB", "OBJECT_ID": "1999-025AHB", "EPOCH": "2025-12-27T06:55:40.393344", "MEAN_MOTION": 14.15837308, "ECCENTRICITY": 0.0139293, "INCLINATION": 98.468, "RA_OF_ASC_NODE": 15.4672, "ARG_OF_PERICENTER": 222.8308, "MEAN_ANOMALY": 153.2379, "EPHEMERIS_TYPE": 0, "CLASSIFICATION_TYPE": "U", "NORAD_CAT_ID": 30489, "ELEMENT_SET_NO": 999, "REV_AT_EPOCH": 97593, "BSTAR": 0.00027636, "MEAN_MOTION_DOT": 5.55e-06, "MEAN_MOTION_DDOT": 0}, "tle": {"line1": "1 30489U 99025AHB 25361.28866196  .00000555  00000+0  27636-3 0  9993", "line2": "2 30489  98.4680  15.4672 0139293 222.8308 153.2379 14.15837308975931"}}, "geometry": {"type": "Point", "coordinates": [152.12436917098043, -77.83690071886701]}}, {"type": "Feature", "properties": {"norad_id": 30490, "name": "FENGYUN 1C DEB", "group": "fengyun-1c-debris", "lat": 72.11688976078673, "lon": 108.14627808495916, "alt_km": 433.7216662261062, "timestamp": "2025-12-27T16:33:30.499189+00:00", "meta": {"OBJECT_NAME": "FENGYUN 1C DEB", "OBJECT_ID": "1999-025AHC", "EPOCH": "2025-12-27T08:23:55.273056", "MEAN_MOTION": 15.31567373, "ECCENTRICITY": 0.0045173, "INCLINATION": 98.3274, "RA_OF_ASC_NODE": 134.7623, "ARG_OF_PERICENTER": 63.1654, "MEAN_ANOMALY": 297.4193, "EPHEMERIS_TYPE": 0, "CLASSIFICATION_TYPE": "U", "NORAD_CAT_ID": 30490, "ELEMENT_SET_NO": 999, "REV_AT_EPOCH": 99719, "BSTAR": 0.0038199, "MEAN_MOTION_DOT": 0.00121832, "MEAN_MOTION_DDOT": 0}, "tle": {"line1": "1 30490U 99025AHC 25361.34994529  .00121832  00000+0  38199-2 0  9991", "line2": "2 30490  98.3274 134.7623 0045173  63.1654 297.4193 15.31567373997193"}}, "geometry": {"type": "Point", "coordinates": [108.14627808495916, 72.11688976078673]}}, {"type": "Feature", "properties": {"norad_id": 30492, "name": "FENGYUN 1C DEB", "group": "fengyun-1c-debris", "lat": 13.743719572219192, "lon": -151.09272067809232, "alt_km": 772.4106482164416, "timestamp": "2025-12-27T16:33:30.499199+00:00", "meta": {"OBJECT_NAME": "FENGYUN 1C DEB", "OBJECT_ID": "1999-025AHE", "EPOCH": "2025-12-27T00:55:16.006080", "MEAN_MOTION": 14.52209249, "ECCENTRICITY": 0.00940229, "INCLINATION": 102.3252, "RA_OF_ASC_NODE": 24.8893, "ARG_OF_PERICENTER": 24.3844, "MEAN_ANOMALY": 336.1743, "EPHEMERIS_TYPE": 0, "CLASSIFICATION_TYPE": "U", "NORAD_CAT_ID": 30492, "ELEMENT_SET_NO": 999, "REV_AT_EPOCH": 97102, "BSTAR": 0.0036325808, "MEAN_MOTION_DOT": 0.00015571, "MEAN_MOTION_DDOT": 0}, "tle": {"line1": "1 30492U 99025AHE 25361.03837970  .00015571  00000+0  36326-2 0  9997", "line2": "2 30492 102.3252  24.8893 0094022  24.3844 336.1743 14.52209249971025"}}, "geometry": {"type": "Point", "coordinates": [-151.09272067809232, 13.743719572219192]}}, {"type": "Feature", "properties": {"norad_id": 30493, "name": "FENGYUN 1C DEB", "group": "fengyun-1c-debris", "lat": -9.657139437363782, "lon": 9.461093739558237, "alt_km": 794.146536016694, "timestamp": "2025-12-27T16:33:30.499209+00:00", "meta": {"OBJECT_NAME": "FENGYUN 1C DEB", "OBJECT_ID": "1999-025AHF", "EPOCH": "2025-12-27T07:53:02.959872", "MEAN_MOTION": 13.93076788, "ECCENTRICITY": 0.0180466, "INCLINATION": 98.5722, "RA_OF_ASC_NODE": 190.5968, "ARG_OF_PERICENTER": 176.3711, "MEAN_ANOMALY": 1.1752, "EPHEMERIS_TYPE": 0, "CLASSIFICATION_TYPE": "U", "NORAD_CAT_ID": 30493, "ELEMENT_SET_NO": 999, "REV_AT_EPOCH": 95298, "BSTAR": 0.0027957, "MEAN_MOTION_DOT": 4.122e-05, "MEAN_MOTION_DDOT": 0}, "tle": {"line1": "1 30493U 99025AHF 25361.32850648  .00004122  00000+0  27957-2 0  9997", "line2": "2 30493  98.5722 190.5968 0180466 176.3711   1.1752 13.93076788952984"}}, "geometry": {"type": "Point", "coordinates": [9.461093739558237, -9.657139437363782]}}, {"type": "Feature", "properties": {"norad_id": 30494, "name": "FENGYUN 1C DEB", "group": "fengyun-1c-debris", "lat": 80.11193906965549, "lon": -73.48532868433558, "alt_km": 954.4435652772945, "timestamp": "2025-12-27T16:33:30.499219+00:00", "meta": {"OBJECT_NAME": "FENGYUN 1C DEB", "OBJECT_ID": "1999-025AHG", "EPOCH": "2025-12-26T08:45:41.685984", "MEAN_MOTION": 13.79412088, "ECCENTRICITY": 0.0186272, "INCLINATION": 99.2815, "RA_OF_ASC_NODE": 35.4794, "ARG_OF_PERICENTER": 186.267, "MEAN_ANOMALY": 173.6149, "EPHEMERIS_TYPE": 0, "CLASSIFICATION_TYPE": "U", "NORAD_CAT_ID": 30494, "ELEMENT_SET_NO": 999, "REV_AT_EPOCH": 94674, "BSTAR": 0.0013009, "MEAN_MOTION_DOT": 1.48e-05, "MEAN_MOTION_DDOT": 0}, "tle": {"line1": "1 30494U 99025AHG 25360.36506581  .00001480  00000+0  13009-2 0  9992", "line2": "2 30494  99.2815  35.4794 0186272 186.2670 173.6149 13.79412088946748"}}, "geometry": {"type": "Point", "coordinates": [-73.48532868433558, 80.11193906965549]}}, {"type": "Feature", "properties": {"norad_id": 30495, "name": "FENGYUN 1C DEB", "group": "fengyun-1c-debris", "lat": -22.54420477341548, "lon": -92.90886215951113, "alt_km": 897.5647807148243, "timestamp": "2025-12-27T16:33:30.499229+00:00", "meta": {"OBJECT_NAME": "FENGYUN 1C DEB", "OBJECT_ID": "1999-025AHH", "EPOCH": "2025-12-27T02:28:47.695584", "MEAN_MOTION": 12.94447442, "ECCENTRICITY": 0.05979, "INCLINATION": 102.2605, "RA_OF_ASC_NODE": 91.6127, "ARG_OF_PERICENTER": 237.3373, "MEAN_ANOMALY": 116.869, "EPHEMERIS_TYPE": 0, "CLASSIFICATION_TYPE": "U", "NORAD_CAT_ID": 30495, "ELEMENT_SET_NO": 999, "REV_AT_EPOCH": 88859, "BSTAR": 0.0043426543, "MEAN_MOTION_DOT": 2.674e-05, "MEAN_MOTION_DDOT": 0}, "tle": {"line1": "1 30495U 99025AHH 25361.10332981  .00002674  00000+0  43427-2 0  9990", "line2": "2 30495 102.2605  91.6127 0597900 237.3373 116.8690 12.94447442888593"}}, "geometry": {"type": "Point", "coordinates": [-92.90886215951113, -22.54420477341548]}}, {"type": "Feature", "properties": {"norad_id": 30496, "name": "FENGYUN 1C DEB", "group": "fengyun-1c-debris", "lat": 22.780304934621718, "lon": -94.42427181758288, "alt_km": 502.46576385970275, "timestamp": "2025-12-27T16:33:30.499239+00:00", "meta": {"OBJECT_NAME": "FENGYUN 1C DEB", "OBJECT_ID": "1999-025AHJ", "EPOCH": "2025-12-27T05:12:34.606080", "MEAN_MOTION": 14.94472074, "ECCENTRICITY": 0.0129633, "INCLINATION": 98.7831, "RA_OF_ASC_NODE": 268.7698, "ARG_OF_PERICENTER": 50.9835, "MEAN_ANOMALY": 310.284, "EPHEMERIS_TYPE": 0, "CLASSIFICATION_TYPE": "U", "NORAD_CAT_ID": 30496, "ELEMENT_SET_NO": 999, "REV_AT_EPOCH": 1360, "BSTAR": 0.00076313, "MEAN_MOTION_DOT": 9.66e-05, "MEAN_MOTION_DDOT": 0}, "tle": {"line1": "1 30496U 99025AHJ 25361.21706720  .00009660  00000+0  76313-3 0  9992", "line2": "2 30496  98.7831 268.7698 0129633  50.9835 310.2840 14.94472074 13600"}}, "geometry": {"type": "Point", "coordinates": [-94.42427181758288, 22.780304934621718]}}, {"type": "Feature", "properties": {"norad_id": 30498, "name": "FENGYUN 1C DEB", "group": "fengyun-1c-debris", "lat": 76.83096959286979, "lon": 9.048081078476626, "alt_km": 803.3943271264588, "timestamp": "2025-12-27T16:33:30.499249+00:00", "meta": {"OBJECT_NAME": "FENGYUN 1C DEB", "OBJECT_ID": "1999-025AHL", "EPOCH": "2025-12-27T02:46:39.931680", "MEAN_MOTION": 14.06147926, "ECCENTRICITY": 0.01031354, "INCLINATION": 99.2369, "RA_OF_ASC_NODE": 52.5284, "ARG_OF_PERICENTER": 116.6698, "MEAN_ANOMALY": 299.5197, "EPHEMERIS_TYPE": 0, "CLASSIFICATION_TYPE": "U", "NORAD_CAT_ID": 30498, "ELEMENT_SET_NO": 999, "REV_AT_EPOCH": 95971, "BSTAR": 0.0018065099, "MEAN_MOTION_DOT": 3.071e-05, "MEAN_MOTION_DDOT": 0}, "tle": {"line1": "1 30498U 99025AHL 25361.11573995  .00003071  00000+0  18065-2 0  9998", "line2": "2 30498  99.2369  52.5284 0103135 116.6698 299.5197 14.06147926959713"}}, "geometry": {"type": "Point", "coordinates": [9.048081078476626, 76.83096959286979]}}, {"type": "Feature", "properties": {"norad_id": 30500, "name": "FENGYUN 1C DEB", "group": "fengyun-1c-debris", "lat": -68.71645518788932, "lon": -110.52363270452237, "alt_km": 859.7357235609825, "timestamp": "2025-12-27T16:33:30.499259+00:00", "meta": {"OBJECT_NAME": "FENGYUN 1C DEB", "OBJECT_ID": "1999-025AHN", "EPOCH": "2025-12-27T05:24:57.863808", "MEAN_MOTION": 14.25352508, "ECCENTRICITY": 0.0062994, "INCLINATION": 99.0713, "RA_OF_ASC_NODE": 93.2087, "ARG_OF_PERICENTER": 74.6954, "MEAN_ANOMALY": 314.9478, "EPHEMERIS_TYPE": 0, "CLASSIFICATION_TYPE": "U", "NORAD_CAT_ID": 30500, "ELEMENT_SET_NO": 999, "REV_AT_EPOCH": 96888, "BSTAR": 0.0024191, "MEAN_MOTION_DOT": 5.778e-05, "MEAN_MOTION_DDOT": 0}, "tle": {"line1": "1 30500U 99025AHN 25361.22566972  .00005778  00000+0  24191-2 0  9994", "line2": "2 30500  99.0713  93.2087 0062994  74.6954 314.9478 14.25352508968883"}}, "geometry": {"type": "Point", "coordinates": [-110.52363270452237, -68.71645518788932]}}]}